ONEWEB-0201             
1 48241U 21031AH  24039.67678291  .00000074  00000+0  16471-3 0  9992
2 48241  87.8942 100.8047 0001751  98.3749 261.7579 13.14501596135464
ONEWEB-0207             
1 48242U 21031AJ  24039.42781050 -.00000162  00000+0 -47148-3 0  9999
2 48242  87.8942 100.8215 0001676 108.1758 251.9555 13.14506673135341
ONEWEB-0208             
1 48243U 21031AK  24039.56181412  .00000031  00000+0  49104-4 0  9999
2 48243  87.8943 100.8107 0001743  94.5386 265.5943 13.14502559135377
ONEWEB-0200             
1 48244U 21031AL  24039.67758037  .00000090  00000+0  20739-3 0  9992
2 48244  87.8940 100.7867 0001791  92.8661 267.2673 13.14501601135328
ONEWEB-0217             
1 48245U 21031AM  24039.54120377  .00000265  00000+0  67988-3 0  9990
2 48245  87.8941 100.7985 0001790  88.2947 271.8388 13.14502688135247
ONEWEB-0211             
1 48767U 21045A   24039.57115933 -.00000075  00000+0 -23225-3 0  9996
2 48767  87.8948  70.2799 0001852  93.5727 266.5615 13.15547801131394
ONEWEB-0223             
1 48768U 21045B   24039.59333807  .00000079  00000+0  17623-3 0  9998
2 48768  87.8949  70.2787 0002569  84.4518 275.6906 13.15549080132527
ONEWEB-0230             
1 48769U 21045C   24039.64088546 -.00000099  00000+0 -29645-3 0  9993
2 48769  87.8949  70.3416 0001999  97.4231 262.7127 13.15548926132766
ONEWEB-0237             
1 48770U 21045D   24039.55373130  .00000026  00000+0  33910-4 0  9990
2 48770  87.8956  70.2824 0002306  88.2655 271.8739 13.15547974131366
ONEWEB-0235             
1 48771U 21045E   24039.60443593  .00000224  00000+0  56099-3 0  9990
2 48771  87.8946  70.2929 0002657  88.0662 272.0773 13.15547189132480
ONEWEB-0242             
1 48772U 21045F   24039.59809966  .00000146  00000+0  35413-3 0  9999
2 48772  87.8946  70.2837 0002119  94.9401 265.1971 13.15547412131402
ONEWEB-0241             
1 48773U 21045G   24039.58542106 -.00000004  00000+0 -44048-4 0  9999
2 48773  87.8954  70.3208 0002044  81.0651 279.0711 13.15547646131311
ONEWEB-0243             
1 48774U 21045H   24039.54105200  .00000177  00000+0  43575-3 0  9998
2 48774  87.8957  70.2877 0002353  91.8384 268.3015 13.15547804131337
ONEWEB-0222             
1 48775U 21045J   24039.60752926  .00000218  00000+0  54534-3 0  9992
2 48775  87.8945  70.2955 0002072  85.5547 274.5820 13.15548662132507
ONEWEB-0244             
1 48776U 21045K   24039.62661790  .00000064  00000+0  13532-3 0  9995
2 48776  87.8945  70.2728 0002149  97.6901 262.4473 13.15548312133074
ONEWEB-0247             
1 48777U 21045L   24039.54739676  .00000104  00000+0  24180-3 0  9992
2 48777  87.8953  70.3193 0003009  86.5884 273.5591 13.15547253131383
ONEWEB-0245             
1 48778U 21045M   24039.54264209  .00000184  00000+0  45458-3 0  9997
2 48778  87.8944  70.3184 0001868  83.7277 276.4066 13.15548342131356
ONEWEB-0229             
1 48779U 21045N   24039.61394377  .00000191  00000+0  47196-3 0  9995
2 48779  87.8947  70.2961 0002099  94.0925 266.0445 13.15547355131397
ONEWEB-0228             
1 48780U 21045P   24039.55293263  .00000021  00000+0  21233-4 0  9999
2 48780  87.8944  70.2866 0002025  93.9605 266.1757 13.15547482131301
ONEWEB-0232             
1 48781U 21045Q   24039.54580654  .00000146  00000+0  35378-3 0  9994
2 48781  87.8940  70.3153 0002010  93.7636 266.3724 13.15548960131627
ONEWEB-0231             
1 48782U 21045R   24039.59968160  .00000184  00000+0  45411-3 0  9993
2 48782  87.8954  70.3146 0002167  91.2875 268.8504 13.15547961132462
ONEWEB-0234             
1 48783U 21045S   24039.54342688  .00000126  00000+0  30189-3 0  9992
2 48783  87.8948  70.2949 0000592  64.2917 295.8274 13.15547564131454
ONEWEB-0238             
1 48784U 21045T   24039.57352771 -.00000084  00000+0 -25678-3 0  9992
2 48784  87.8947  70.3074 0001751  94.5343 265.5987 13.15549309131354
ONEWEB-0240             
1 48785U 21045U   24039.58304400 -.00000015  00000+0 -74992-4 0  9998
2 48785  87.8945  70.2737 0002105  81.5654 278.5715 13.15547860132504
ONEWEB-0246             
1 48786U 21045V   24039.57748282  .00000997  00000+0  26146-2 0  9991
2 48786  87.8947  70.2776 0002376  88.4087 271.7315 13.15557716131259
ONEWEB-0210             
1 48787U 21045W   24039.55213915  .00000053  00000+0  10761-3 0  9990
2 48787  87.8947  70.2893 0002620  98.7843 261.3584 13.15548822131291
ONEWEB-0214             
1 48788U 21045X   24039.56163882 -.00000025  00000+0 -10041-3 0  9991
2 48788  87.8946  70.2759 0002566 100.7344 259.4075 13.15547086131262
ONEWEB-0221             
1 48789U 21045Y   24039.56798400 -.00000017  00000+0 -80309-4 0  9998
2 48789  87.8950  70.2890 0002111  87.8635 272.2737 13.15549489131355
ONEWEB-0213             
1 48790U 21045Z   24039.55689598 -.00000034  00000+0 -12352-3 0  9997
2 48790  87.8949  70.3072 0002267  87.8140 272.3250 13.15548657131415
ONEWEB-0212             
1 48791U 21045AA  24039.60998408  .00000201  00000+0  50056-3 0  9994
2 48791  87.8950  70.2769 0001796  93.5217 266.6119 13.15547799131411
ONEWEB-0227             
1 48792U 21045AB  24039.60919360  .00000196  00000+0  48739-3 0  9993
2 48792  87.8948  70.2940 0001935  90.1196 270.0156 13.15547293131367
ONEWEB-0226             
1 48793U 21045AC  24039.60285027  .00000160  00000+0  39000-3 0  9992
2 48793  87.8947  70.3028 0002505  92.7685 267.3732 13.15548086131337
ONEWEB-0224             
1 48794U 21045AD  24039.56641385 -.00000050  00000+0 -16592-3 0  9992
2 48794  87.8952  70.3253 0002113  70.5860 289.5498 13.15548777131251
ONEWEB-0233             
1 48795U 21045AE  24039.56244498 -.00000057  00000+0 -18517-3 0  9993
2 48795  87.8950  70.3392 0002093  95.6105 264.5264 13.15548230131271
ONEWEB-0190             
1 48796U 21045AF  24039.55847475 -.00000034  00000+0 -12433-3 0  9993
2 48796  87.8951  70.3021 0002931  81.2146 278.9316 13.15549906131345
ONEWEB-0236             
1 48797U 21045AG  24039.65197027 -.00000030  00000+0 -11264-3 0  9993
2 48797  87.8954  70.2722 0001917  90.5515 269.5835 13.15547768132361
ONEWEB-0248             
1 48798U 21045AH  24039.58858960  .00000056  00000+0  11382-3 0  9993
2 48798  87.8945  70.2871 0002268  72.9623 287.1755 13.15548525131392
ONEWEB-0225             
1 48799U 21045AJ  24039.61077159  .00000178  00000+0  43757-3 0  9997
2 48799  87.8951  70.2886 0002268  84.0561 276.0828 13.15547597131409
ONEWEB-0215             
1 48800U 21045AK  24039.58066529 -.00000016  00000+0 -75852-4 0  9990
2 48800  87.8944  70.2759 0002564  75.4807 284.6608 13.15549097132396
ONEWEB-0216             
1 48801U 21045AL  24039.59017913  .00000083  00000+0  18713-3 0  9999
2 48801  87.8945  70.3136 0002199  99.3492 260.7887 13.15546926131286
ONEWEB-0239             
1 48802U 21045AM  24039.59493186  .00000125  00000+0  29830-3 0  9999
2 48802  87.8954  70.2768 0002435  73.5150 286.6248 13.15548289132468
ONEWEB-0249             
1 48967U 21060A   24039.45049098  .00000121  00000+0  28375-3 0  9991
2 48967  87.9049  39.8718 0001792  87.9686 272.1650 13.16594609126480
ONEWEB-0250             
1 48968U 21060B   24039.53124710  .00000131  00000+0  30881-3 0  9992
2 48968  87.9047  39.8400 0001966  79.6505 280.4847 13.16594075126474
ONEWEB-0252             
1 48970U 21060D   24039.55815899  .00000051  00000+0  99686-4 0  9992
2 48970  87.9049  39.8435 0001989  91.4632 268.6727 13.16594941126540
ONEWEB-0253             
1 48971U 21060E   24039.54708003  .00000027  00000+0  37780-4 0  9990
2 48971  87.9047  39.8606 0002170  84.6636 275.4743 13.16593151126478
ONEWEB-0254             
1 48972U 21060F   24039.48057523  .00000067  00000+0  14260-3 0  9999
2 48972  87.9047  39.8492 0002188  84.2811 275.8569 13.16593747126462
ONEWEB-0255             
1 48973U 21060G   24039.59457568  .00000161  00000+0  38632-3 0  9999
2 48973  87.9046  39.8618 0001834  86.2858 273.8483 13.16593999126554
ONEWEB-0256             
1 48974U 21060H   24039.54469888  .00000096  00000+0  21692-3 0  9998
2 48974  87.9046  39.8722 0001848  89.7639 270.3704 13.16591639126514
ONEWEB-0257             
1 48975U 21060J   24039.50115252  .00000061  00000+0  12576-3 0  9991
2 48975  87.9046  39.8538 0002048  92.2457 267.8908 13.16594521126464
ONEWEB-0258             
1 48976U 21060K   24039.50274512  .00000064  00000+0  13338-3 0  9997
2 48976  87.9045  39.8826 0001836  86.9230 273.2111 13.16593296126473
ONEWEB-0259             
1 48977U 21060L   24039.49640988  .00000046  00000+0  87268-4 0  9994
2 48977  87.9046  39.8690 0001880  78.8024 281.3319 13.16593171126500
ONEWEB-0260             
1 48978U 21060M   24039.49008289  .00000008  00000+0 -11432-4 0  9996
2 48978  87.9046  39.8996 0002303 103.9241 256.2146 13.16594635126484
ONEWEB-0261             
1 48979U 21060N   24039.53281076  .00000122  00000+0  28464-3 0  9997
2 48979  87.9050  39.8802 0002414  83.4492 276.6914 13.16593615126542
ONEWEB-0262             
1 48980U 21060P   24039.51382481  .00000152  00000+0  36346-3 0  9990
2 48980  87.9046  39.8517 0002030  74.0242 286.1113 13.16595205127809
ONEWEB-0263             
1 48981U 21060Q   24039.54548679  .00000026  00000+0  34777-4 0  9994
2 48981  87.9052  39.8576 0002321  80.2497 279.8896 13.16595888127776
ONEWEB-0264             
1 48982U 21060R   24039.50670358  .00000129  00000+0  30426-3 0  9991
2 48982  87.9048  39.8779 0001930  88.4460 271.6892 13.16593576126476
ONEWEB-0266             
1 48984U 21060T   24039.52807085  .00000162  00000+0  39111-3 0  9991
2 48984  87.9047  39.8545 0001678  86.4717 273.6606 13.16594818127768
ONEWEB-0267             
1 48985U 21060U   24039.53916446  .00000050  00000+0  96686-4 0  9992
2 48985  87.9048  39.8534 0002296  88.7515 271.3879 13.16594211126477
ONEWEB-0268             
1 48986U 21060V   24039.50749937  .00000084  00000+0  18662-3 0  9993
2 48986  87.9046  39.8656 0001984  92.7945 267.3413 13.16594774126738
